[{"OBJECT_NAME":"STARLINK-34450","OBJECT_ID":"2025-130K","EPOCH":"2026-03-09T15:34:49.092384","MEAN_MOTION":15.30239893,"ECCENTRICITY":0.0001114,"INCLINATION":53.1599,"RA_OF_ASC_NODE":88.9546,"ARG_OF_PERICENTER":92.4011,"MEAN_ANOMALY":267.7118,"EPHEMERIS_TYPE":0,"CLASSIFICATION_TYPE":"U","NORAD_CAT_ID":64447,"ELEMENT_SET_NO":999,"REV_AT_EPOCH":4069,"BSTAR":0.0013433,"MEAN_MOTION_DOT":0.00039687,"MEAN_MOTION_DDOT":0},{"OBJECT_NAME":"SL-3 R\/B","OBJECT_ID":"1981-065B","EPOCH":"2026-03-09T21:58:16.284000","MEAN_MOTION":15.33300883,"ECCENTRICITY":0.00117648,"INCLINATION":97.6337,"RA_OF_ASC_NODE":111.1786,"ARG_OF_PERICENTER":10.529,"MEAN_ANOMALY":349.6196,"EPHEMERIS_TYPE":0,"CLASSIFICATION_TYPE":"U","NORAD_CAT_ID":12586,"ELEMENT_SET_NO":999,"REV_AT_EPOCH":43499,"BSTAR":0.00030084921,"MEAN_MOTION_DOT":9.62e-5,"MEAN_MOTION_DDOT":0}]
